STARLINK-32517          
1 61980U 24210X   26068.35006430  .00033061  00000+0  12058-2 0  9996
2 61980  42.9999 182.1168 0001233 267.5380  92.5331 15.27572420 74778
TEVEL2-6                
1 63215U 25052F   26068.64958975  .00021046  00000+0  70909-3 0  9996
2 63215  97.4016 325.0381 0004769  95.6604 264.5181 15.30760889 54861
